     2.100          NAVIGATION                              RINEX VERSION / TYPE
fic2rin                                 02/05/2011 00:04:24 PGM / RUN BY / DATE
                                                            END OF HEADER
21 11  2  4 10  0  0.0 -.121527817100D-03 -.272848410532D-11  .000000000000D+00
     .590000000000D+02  .553750000000D+02  .550022910662D-08 -.348128423872D+00
     .296346843243D-05  .172311713686D-01  .708363950253D-05  .515358520699D+04
     .468000000000D+06  .502914190292D-07  .114653001403D+01  .251457095146D-06
     .931745932329D+00  .227156250000D+03 -.241349797005D+01 -.882858203159D-08
     .428589281035D-09  .100000000000D+01  .162100000000D+04  .000000000000D+00
     .240000000000D+01  .000000000000D+00 -.116415321827D-07  .590000000000D+02
     .460806000000D+06  .400000000000D+01
22 11  2  4 10  0  0.0  .153889413923D-03 -.795807864051D-12  .000000000000D+00
     .850000000000D+02 -.347187500000D+02  .547522806523D-08 -.247805893822D+01
    -.183656811714D-05  .536248786375D-02  .482983887196D-05  .515370625877D+04
     .468000000000D+06  .186264514923D-07  .220646441370D+01 -.447034835815D-07
     .931634930494D+00  .271093750000D+03 -.194789002832D+01 -.845999524990D-08
    -.351086052715D-09  .100000000000D+01  .162100000000D+04  .000000000000D+00
     .240000000000D+01  .000000000000D+00 -.172294676304D-07  .850000000000D+02
     .460806000000D+06  .400000000000D+01
24 11  2  4 10  0  0.0  .362445600331D-03  .341060513165D-11  .000000000000D+00
     .330000000000D+02  .488125000000D+02  .502378068920D-08  .145067969429D+01
     .263564288616D-05  .581217848230D-02  .727549195290D-05  .515372658730D+04
     .468000000000D+06  .838190317154D-07  .118946397228D+01  .260770320892D-07
     .948316602907D+00  .228375000000D+03 -.316601690771D+00 -.826677291570D-08
     .386801826134D-09  .100000000000D+01  .162100000000D+04  .000000000000D+00
     .240000000000D+01  .000000000000D+00 -.139698386192D-08  .330000000000D+02
     .460806000000D+06  .400000000000D+01
26 11  2  4 10  0  0.0 -.112755689770D-03 -.943600753089D-11  .000000000000D+00
     .470000000000D+02  .178750000000D+02  .350514600340D-08  .181161757369D+01
     .730156898499D-06  .201646622736D-01  .121071934700D-04  .515365041733D+04
     .468000000000D+06 -.253319740295D-06 -.297912771430D+01 -.415369868279D-06
     .988813567848D+00  .163531250000D+03  .112058713537D+01 -.749031200156D-08
    -.171435712414D-09  .100000000000D+01  .162100000000D+04  .000000000000D+00
     .240000000000D+01  .000000000000D+00 -.651925802231D-08  .470000000000D+02
     .460806000000D+06  .400000000000D+01
27 11  2  4 10  0  0.0  .233459752053D-03  .363797880709D-11  .000000000000D+00
     .280000000000D+02  .117625000000D+03  .404659712844D-08  .285569092923D+01
     .594183802605D-05  .218475096626D-01  .602006912231D-05  .515372457314D+04
     .468000000000D+06  .385567545891D-06 -.205333505980D+01  .987201929092D-07
     .980269501599D+00  .268437500000D+03 -.130044226025D+01 -.767174813053D-08
     .329656588663D-09  .100000000000D+01  .162100000000D+04  .000000000000D+00
     .240000000000D+01  .000000000000D+00 -.419095158577D-08  .280000000000D+02
     .460806000000D+06  .400000000000D+01
28 11  2  4 10  0  0.0  .181607902050D-04  .204636307899D-11  .000000000000D+00
     .940000000000D+02 -.723125000000D+02  .445375694543D-08 -.235994032997D+01
    -.371411442757D-05  .168949123472D-01  .229477882385D-05  .515369165421D+04
     .468000000000D+06  .238418579102D-06 -.918149811619D+00  .316649675369D-07
     .973065449293D+00  .336437500000D+03 -.191188888420D+01 -.803890628129D-08
    -.678599694973D-10  .100000000000D+01  .162100000000D+04  .000000000000D+00
     .340000000000D+01  .000000000000D+00 -.107102096081D-07  .940000000000D+02
     .460806000000D+06  .400000000000D+01
29 11  2  4 10  0  0.0  .182865187526D-03  .261479726760D-11  .000000000000D+00
     .152000000000D+03 -.627187500000D+02  .431196532495D-08 -.197670631947D+00
    -.314600765705D-05  .258916581515D-02  .119209289551D-04  .515359001923D+04
     .468000000000D+06 -.372529029846D-08  .125456404917D+00 -.186264514923D-07
     .961808435113D+00  .151468750000D+03 -.126515777922D+01 -.791890128260D-08
    -.260725145963D-10  .100000000000D+01  .162100000000D+04  .000000000000D+00
     .340000000000D+01  .000000000000D+00 -.884756445885D-08  .152000000000D+03
     .460806000000D+06  .400000000000D+01
30 11  2  4 10  0  0.0  .319115817547D-03  .306954461848D-11  .000000000000D+00
     .880000000000D+02 -.560000000000D+02  .494556314541D-08  .301764894839D+01
    -.301189720631D-05  .125693567097D-01  .191107392311D-05  .515363608742D+04
     .468000000000D+06  .173225998878D-06 -.100062414730D+01 -.484287738800D-07
     .959043689642D+00  .340843750000D+03  .151674001452D+01 -.832570394184D-08
    -.202151277555D-09  .100000000000D+01  .162100000000D+04  .000000000000D+00
     .240000000000D+01  .000000000000D+00 -.791624188423D-08  .880000000000D+02
     .460806000000D+06  .400000000000D+01
31 11  2  4 10  0  0.0  .375476665795D-04  .443378667114D-11  .000000000000D+00
     .370000000000D+02  .100718750000D+03  .422981904608D-08  .416345973338D+00
     .519491732121D-05  .788692443166D-02  .622496008873D-05  .515358917618D+04
     .468000000000D+06 -.149011611938D-07 -.199764591735D+01 -.115483999252D-06
     .978836740113D+00  .266187500000D+03 -.100400311356D+01 -.819141263379D-08
     .444304221340D-09  .100000000000D+01  .162100000000D+04  .000000000000D+00
     .240000000000D+01  .000000000000D+00 -.130385160446D-07  .370000000000D+02
     .460806000000D+06  .400000000000D+01
23 11  2  4 11  0  0.0  .328086316586D-03 -.238742359215D-11  .000000000000D+00
     .108000000000D+03  .725000000000D+01  .408874174108D-08  .262894042780D+01
     .402331352234D-06  .695727393031D-02  .123679637909D-04  .515359906197D+04
     .471600000000D+06 -.165775418282D-06 -.304166621724D+01  .242143869400D-07
     .965948003200D+00  .144843750000D+03  .313244010997D+01 -.769639201419D-08
    -.332156692802D-09  .100000000000D+01  .162100000000D+04  .000000000000D+00
     .340000000000D+01  .000000000000D+00 -.200234353542D-07  .108000000000D+03
     .460806000000D+06  .600000000000D+01
25 11  2  4 11  0  0.0 -.668228603899D-04 -.170530256582D-11  .000000000000D+00
     .141000000000D+03 -.665312500000D+02  .487270296764D-08 -.119649437767D+01
    -.347942113876D-05  .407538143918D-03  .258162617683D-05  .515370215034D+04
     .471600000000D+06 -.130385160446D-07 -.971818067323D+00 -.223517417908D-07
     .962434934170D+00  .332375000000D+03  .128884098926D+01 -.845820946123D-08
    -.210365905441D-09  .100000000000D+01  .162100000000D+04  .100000000000D+01
     .340000000000D+01  .000000000000D+00  .465661287308D-08  .141000000000D+03
     .460806000000D+06  .600000000000D+01
28 11  2  4  9 59 44.0  .181575305760D-04  .204636307899D-11  .000000000000D+00
     .800000000000D+01 -.723125000000D+02  .445339978769D-08 -.236227393739D+01
    -.371411442757D-05  .168949147919D-01  .229477882385D-05  .515369165802D+04
     .467984000000D+06  .238418579102D-06 -.918149691660D+00  .316649675369D-07
     .973065450756D+00  .336437500000D+03 -.191188903488D+01 -.803890628129D-08
    -.675028117631D-10  .100000000000D+01  .162100000000D+04  .000000000000D+00
     .240000000000D+01  .000000000000D+00 -.107102096081D-07  .800000000000D+01
     .461706000000D+06  .400000000000D+01
18 11  2  4  9 59 44.0  .119654461741D-03  .204636307899D-11  .000000000000D+00
     .300000000000D+01 -.360625000000D+02  .542486882470D-08 -.163995138000D+01
    -.187195837498D-05  .118721539620D-01  .470317900181D-05  .515375288963D+04
     .467984000000D+06  .253319740295D-06  .220209356412D+01 -.106170773506D-06
     .933938267215D+00  .273625000000D+03 -.227553973640D+01 -.842927968476D-08
    -.336799743347D-09  .100000000000D+01  .162100000000D+04  .000000000000D+00
     .240000000000D+01  .000000000000D+00 -.107102096081D-07  .300000000000D+01
     .461736000000D+06  .400000000000D+01
21 11  2  4  9 59 44.0 -.121526885778D-03 -.272848410532D-11  .000000000000D+00
     .400000000000D+01  .553750000000D+02  .550094342209D-08 -.350462160030D+00
     .296346843243D-05  .172311700881D-01  .708363950253D-05  .515358521080D+04
     .467984000000D+06  .502914190292D-07  .114653016618D+01  .251457095146D-06
     .931745922089D+00  .227156250000D+03 -.241349810171D+01 -.882858203159D-08
     .428589281035D-09  .100000000000D+01  .162100000000D+04  .000000000000D+00
     .240000000000D+01  .000000000000D+00 -.116415321827D-07  .400000000000D+01
     .462486000000D+06  .400000000000D+01
22 11  2  4  9 59 44.0  .153888948262D-03 -.795807864051D-12  .000000000000D+00
     .290000000000D+02 -.347187500000D+02  .547558522296D-08 -.248039263049D+01
    -.183470547199D-05  .536248926073D-02  .482983887196D-05  .515370625687D+04
     .467984000000D+06  .204890966415D-07  .220646456731D+01 -.447034835815D-07
     .931634950975D+00  .271093750000D+03 -.194789008098D+01 -.845999524990D-08
    -.351443210449D-09  .100000000000D+01  .162100000000D+04  .000000000000D+00
     .240000000000D+01  .000000000000D+00 -.172294676304D-07  .290000000000D+02
     .464856000000D+06  .400000000000D+01
20 11  2  4  9 59 44.0  .486862845719D-04  .000000000000D+00  .000000000000D+00
     .000000000000D+00 -.250312500000D+02  .559201864431D-08 -.126534029434D+01
    -.130385160446D-05  .468686060049D-02  .425614416599D-05  .515372663498D+04
     .467984000000D+06  .353902578354D-07  .214813584374D+01  .135973095894D-06
     .933978582311D+00  .282656250000D+03  .126604905182D+01 -.867107547081D-08
    -.315370279295D-09  .100000000000D+01  .162100000000D+04  .000000000000D+00
     .240000000000D+01  .000000000000D+00 -.791624188423D-08  .000000000000D+00
     .465456000000D+06  .400000000000D+01
